[{"OBJECT_NAME":"OBJECT AK","OBJECT_ID":"2024-199AK","EPOCH":"2026-03-09T21:33:12.117024","MEAN_MOTION":15.45335097,"ECCENTRICITY":0.00044603,"INCLINATION":97.3127,"RA_OF_ASC_NODE":302.7659,"ARG_OF_PERICENTER":300.4688,"MEAN_ANOMALY":59.612,"EPHEMERIS_TYPE":0,"CLASSIFICATION_TYPE":"U","NORAD_CAT_ID":61768,"ELEMENT_SET_NO":999,"REV_AT_EPOCH":11898,"BSTAR":0.00054405421,"MEAN_MOTION_DOT":0.00025914,"MEAN_MOTION_DDOT":0},{"OBJECT_NAME":"STARLINK-36737","OBJECT_ID":"2026-026V","EPOCH":"2026-03-09T22:00:01.999584","MEAN_MOTION":15.4917276,"ECCENTRICITY":0.00017552,"INCLINATION":97.284,"RA_OF_ASC_NODE":123.5348,"ARG_OF_PERICENTER":84.3492,"MEAN_ANOMALY":200.632,"EPHEMERIS_TYPE":0,"CLASSIFICATION_TYPE":"U","NORAD_CAT_ID":67740,"ELEMENT_SET_NO":999,"REV_AT_EPOCH":535,"BSTAR":-0.038918672,"MEAN_MOTION_DOT":-0.01901921,"MEAN_MOTION_DDOT":0}]
